P/2010 H3 (SOHO),e,23.2700,77.4263,25.8230,3.064542,0.1837197,0.98547994,0.0000,02/07.8848/2021,2000,g 20.0,2.0
# From MPC 73463
P/2010 H4 (Scotti),e,2.3197,44.7547,179.5676,6.587127,0.0582989,0.26808615,209.9769,05/02.0/2020,2000,g 10.5,4.0
# From MPC 74637
P/2010 H5 (Scotti),e,14.0724,24.8112,175.3496,7.154659,0.0515016,0.15428499,189.0361,05/02.0/2020,2000,g 13.0,2.0
# From MPC 98558
P/2010 J3 (McMillan),e,13.2909,106.4048,157.5609,8.966967,0.0367059,0.72759369,129.6810,05/02.0/2020,2000,g 11.0,4.0
# From MPC 84315
P/2010 JC81 (WISE),e,38.6807,30.8366,12.4618,8.113266,0.0426492,0.77633216,140.8032,05/02.0/2020,2000,g  9.0,4.0
# From MPC 74248
C/2010 L5 (WISE),e,146.9782,206.4948,214.4393,8.025431,0.0433512,0.90155429,159.0880,05/02.0/2020,2000,g 18.0,4.0
# From MPEC 2020-H67
C/2010 M1 (Gibbs),e,116.4579,66.4454,167.4702,1080,0.0000278,0.99259021,0.0000,12/08.6621/2010,2000,g  9.0,4.0
# From MPC 74248
P/2010 T2 (PANSTARRS),e,7.9473,59.2499,354.0872,5.496573,0.0764832,0.32176085,250.7764,05/02.0/2020,2000,g 11.5,4.0
# From MPC 98558
P/2010 TO20 (LINEAR-Grauer),e,2.4795,43.3010,266.7853,5.827240,0.0700664,0.05404614,294.6797,05/02.0/2020,2000,g  9.0,4.0
# From MPC 82316
P/2010 U1 (Boattini),e,8.2138,280.7218,85.8595,6.514559,0.0592757,0.24748578,222.5688,05/02.0/2020,2000,g  9.5,4.0
# From MPEC 2020-H67
C/2010 U3 (Boattini),e,55.5150,43.0476,88.0804,2798,0.0000067,0.99698178,0.0000,02/26.2513/2019,2000,g  1.0,4.0
# From MPC 79021
P/2010 UH55 (Spacewatch),e,8.0537,233.0581,225.1850,6.648762,0.0574901,0.56381202,189.7581,05/02.0/2020,2000,g 11.0,4.0
# From MPC 75009
P/2010 WK (LINEAR),e,11.3998,11.3093,41.0174,5.758612,0.0713226,0.68959318,249.9327,05/02.0/2020,2000,g 14.5,2.0
# From MPC 82317
P/2011 A2 (Scotti),e,4.4753,54.6731,94.5553,3.104631,0.1801727,0.49939148,255.7252,05/02.0/2020,2000,g 16.5,4.0
# From MPC 84021
P/2011 C2 (Gibbs),e,10.8864,12.1189,161.1021,7.413758,0.0488255,0.26927453,148.3785,05/02.0/2020,2000,g  9.0,4.0
# From MPC 79866
P/2011 FR143 (Lemmon),e,15.9951,190.9476,350.1668,6.854263,0.0549241,0.45148899,183.7028,05/02.0/2020,2000,g 14.0,2.0
# From MPC 82317
P/2011 JB15 (Spacewatch-Boattini),e,19.1458,153.6130,110.9186,7.351145,0.0494506,0.31848077,149.3793,05/02.0/2020,2000,g  9.0,4.0
# From MPEC 2020-H67
C/2011 KP36 (Spacewatch),e,18.9826,173.3221,180.6073,38.74451,0.0040869,0.87407610,5.8679,05/02.0/2020,2000,g  4.5,4.0
# From MPC 87913
P/2011 N1 (ASH),e,35.7047,77.6099,330.3541,6.251459,0.0630568,0.54330311,183.1871,05/02.0/2020,2000,g 11.5,4.0
# From MPC 75714
P/2011 NO1 (Elenin),e,15.2490,295.7911,263.8474,5.522001,0.0759555,0.77516594,257.1816,05/02.0/2020,2000,g 15.0,4.0
# From MPC 82318
P/2011 P1 (McNaught),e,5.6555,4.2453,348.8647,7.471861,0.0482571,0.32640815,172.6755,05/02.0/2020,2000,g  9.0,4.0
# From MPC 77806
P/2011 Q3 (McNaught),e,6.0556,32.0243,310.9574,4.970812,0.0889330,0.53233902,285.3278,05/02.0/2020,2000,g 13.5,4.0
# From MPC 90269
P/2011 R3 (Novichonok-Gerke),e,19.2385,189.7723,224.8636,4.782843,0.0942269,0.27139656,277.1331,05/02.0/2020,2000,g 11.0,4.0
# From MPC 98558
P/2011 S1 (Gibbs),e,2.6833,218.9233,192.6101,8.591649,0.0391372,0.19985943,81.7783,05/02.0/2020,2000,g  8.0,4.0
# From MPC115880
P/2011 U2 (Bressi),e,9.9932,263.6568,151.7476,4.927706,0.0901025,0.13143639,254.0659,05/02.0/2020,2000,g 10.0,4.0
# From MPC 79022
P/2011 UA134 (Spacewatch-PANSTARRS),e,10.4469,40.4469,32.4832,5.601522,0.0743438,0.62932383,229.5573,05/02.0/2020,2000,g 17.5,4.0
# From MPC 77406
P/2011 V1 (Boattini),e,7.3783,46.8618,269.2126,3.853865,0.1302745,0.55060273,75.2935,05/02.0/2020,2000,g 15.5,4.0
# From MPC 82718
P/2011 W1 (PANSTARRS),e,3.7186,161.7902,282.7290,4.659624,0.0979891,0.28684783,296.6196,05/02.0/2020,2000,g 11.5,4.0
# From MPC 79342
P/2011 Y2 (Boattini),e,6.3716,309.3669,131.9597,6.239584,0.0632369,0.70916768,188.2562,05/02.0/2020,2000,g 15.0,4.0
# From MPC 94669
P/2012 B1 (PANSTARRS),e,7.6179,36.1904,162.6019,6.525810,0.0591225,0.41026268,146.3888,05/02.0/2020,2000,g  9.0,4.0
# From MPC 78590
P/2012 C3 (PANSTARRS),e,9.0920,135.3677,344.9542,9.748681,0.0323806,0.63011148,359.9758,10/06.0/2011,2000,g 13.0,4.0
# From MPC 84931
P/2012 F2 (PANSTARRS),e,14.7320,227.0719,33.2189,6.327123,0.0619291,0.54305403,159.5083,05/02.0/2020,2000,g 12.0,4.0
# From MPC107683
C/2012 F3 (PANSTARRS),h,04/07.6504/2015,11.3333,164.5343,104.2811,1.004496,3.466911,2000,6.5,4.0
# From MPC 79344
P/2012 G1 (PANSTARRS),e,11.6925,282.5440,286.1149,4.172871,0.1156250,0.38072240,359.9500,06/01.0/2012,2000,g 15.0,4.0
# From MPC 80898
P/2012 K3 (Gibbs),e,13.1946,125.8099,172.1150,3.623907,0.1428692,0.42349616,36.9387,05/02.0/2020,2000,g 15.0,4.0
# From MPC112389
C/2012 LP26 (Palomar),h,08/18.6537/2015,25.3457,153.9341,145.3245,1.003410,6.543058,2000,6.5,4.0
# From MPC 88326
P/2012 NJ (La Sagra),e,84.6376,315.5608,338.3098,8.456750,0.0400773,0.84750662,115.4380,05/02.0/2020,2000,g 14.5,4.0
# From MPC 81470
P/2012 O1 (McNaught),e,7.4335,91.9851,238.2037,3.539484,0.1480110,0.59447490,63.1478,05/02.0/2020,2000,g 17.5,4.0
# From MPC 80899
P/2012 O2 (McNaught),e,24.4862,120.6798,183.3741,3.621856,0.1429905,0.53282425,51.7503,05/02.0/2020,2000,g 17.0,4.0
# From MPC 82720
P/2012 O3 (McNaught),e,16.6113,336.4048,344.6855,4.576267,0.1006786,0.64680918,283.7044,05/02.0/2020,2000,g 16.5,4.0
# From MPC 82720
P/2012 S2 (La Sagra),e,8.6874,51.1928,312.5125,4.409662,0.1064379,0.69107588,301.6851,05/02.0/2020,2000,g 17.0,4.0
# From MPC 82720
P/2012 SB6 (Lemmon),e,10.9289,8.2099,14.3959,3.825159,0.1317437,0.40477021,353.6123,05/02.0/2020,2000,g 14.0,4.0
# From MPC 82320
P/2012 T2 (PANSTARRS),e,12.5547,73.7355,310.4507,5.739582,0.0716776,0.16034621,184.2323,05/02.0/2020,2000,g 10.0,4.0
# From MPC 80900
P/2012 T3 (PANSTARRS),e,9.5684,114.4075,195.4239,6.153179,0.0645736,0.61707192,188.8195,05/02.0/2020,2000,g 15.0,4.0
# From MPC 87914
P/2012 TK8 (Tenagra),e,6.3406,288.9710,127.7633,4.131848,0.1173512,0.27434043,296.5073,05/02.0/2020,2000,g 13.0,4.0
# From MPC 82720
P/2012 U2 (PANSTARRS),e,10.7454,185.2603,228.3661,7.145167,0.0516042,0.49741978,141.0079,05/02.0/2020,2000,g 12.5,4.0
# From MPC 84024
P/2012 US27 (Siding Spring),e,39.3225,49.1680,0.8356,5.166017,0.0839403,0.64725210,222.7470,05/02.0/2020,2000,g 13.5,4.0
# From MPC 82721
P/2012 WA34 (Lemmon-PANSTARRS),e,6.1224,94.4996,352.8299,4.771693,0.0945574,0.34072457,250.6693,05/02.0/2020,2000,g 13.5,4.0
# From MPC 84024
P/2013 A2 (Scotti),e,3.3614,355.8179,134.5606,4.012768,0.1226134,0.45432647,324.4608,05/02.0/2020,2000,g 15.5,4.0
# From MPC 82721
P/2013 AL76 (Catalina),e,144.7933,145.9412,27.1436,6.498403,0.0594969,0.68607969,160.4915,05/02.0/2020,2000,g 16.0,4.0
# From MPC115880
C/2013 C2 (Tenagra),e,21.3377,247.5294,309.5369,16.01698,0.0153756,0.42831009,26.0178,05/02.0/2020,2000,g  4.0,4.0
# From MPC 88695
P/2013 EW90 (Tenagra),e,31.7861,160.3007,346.3761,4.116327,0.1180156,0.19496318,325.7823,05/02.0/2020,2000,g 12.0,4.0
# From MPC 91612
P/2013 G1 (Kowalski),e,5.4703,221.4234,51.3276,6.885073,0.0545558,0.51344192,127.1954,05/02.0/2020,2000,g 11.0,4.0
# From MPC 84025
P/2013 G4 (PANSTARRS),e,5.9161,339.6529,214.7295,4.438674,0.1053960,0.40980287,277.9551,05/02.0/2020,2000,g 15.0,4.0
# From MPC 91613
P/2013 J2 (McNaught),e,15.5358,289.4293,37.7115,6.223908,0.0634760,0.65726691,154.9447,05/02.0/2020,2000,g 13.0,4.0
# From MPC 87066
P/2013 J4 (PANSTARRS),e,5.0352,84.0011,118.7706,2.475100,0.2531133,0.23099371,359.9443,11/04.0/2013,2000,g 14.0,4.0
# From MPC 86229
P/2013 N3 (PANSTARRS),e,2.1725,17.5192,323.8202,7.390902,0.0490521,0.59278626,111.3084,05/02.0/2020,2000,g 13.0,4.0
# From MPC 85834
P/2013 N5 (PANSTARRS),e,23.4024,187.1762,176.8798,6.800640,0.0555750,0.73143857,138.7752,05/02.0/2020,2000,g 17.0,4.0
# From MPC 87479
P/2013 O2 (PANSTARRS),e,13.3161,207.1697,214.1914,3.791426,0.1335058,0.44685030,308.5296,05/02.0/2020,2000,g 14.0,4.0
# From MPC 85834
P/2013 P1 (PANSTARRS),e,18.7167,160.6456,138.0334,8.565169,0.0393188,0.60617782,102.9634,05/02.0/2020,2000,g 12.0,4.0
# From MPC 94671
P/2013 R3 (Catalina-PANSTARRS),e,0.8653,342.0033,11.1484,3.034049,0.1864963,0.27490760,95.5652,05/02.0/2020,2000,g 14.0,4.0
# From unp
P/2013 R3-A (Catalina-PANSTARRS),e,0.8647,341.9701,11.1874,3.033908,0.1865093,0.27487694,95.5947,05/02.0/2020,2000,g  9.0,4.0
# From MPEC 2015-M77
P/2013 R3-B (Catalina-PANSTARRS),e,0.8659,342.0260,11.1223,3.034126,0.1864892,0.27492270,95.5494,05/02.0/2020,2000,g  9.0,4.0
# From MPC 85835
P/2013 T1 (PANSTARRS),e,24.2604,10.0977,346.0633,5.862917,0.0694278,0.62320407,171.2799,05/02.0/2020,2000,g 16.5,4.0
# From MPC 86643
P/2013 T2 (Schwartz),e,9.4562,0.8242,345.4526,3.488118,0.1512925,0.50105536,23.2170,05/02.0/2020,2000,g 16.0,4.0
# From MPC 88696
P/2013 TL117 (Lemmon),e,9.3650,3.3153,112.2517,3.609125,0.1437478,0.68914922,326.0476,05/02.0/2020,2000,g 17.5,4.0
# From MPC110080
C/2013 US10 (Catalina),h,11/16.5496/2015,148.7919,186.3523,340.5734,1.000616,0.822521,2000,4.4,4.0
# From MPC111767
C/2013 V4 (Catalina),e,67.8763,55.6190,40.3463,3741,0.0000043,0.99861457,0.0000,10/05.6787/2015,2000,g  6.0,4.0
# From MPC 91613
P/2013 W1 (PANSTARRS),e,4.6954,117.8484,1.3034,3.490640,0.1511285,0.59281507,340.1535,05/02.0/2020,2000,g 17.5,4.0
# From MPC111767
C/2013 X1 (PANSTARRS),h,04/19.5737/2016,163.1914,131.5840,165.1346,1.000364,1.320600,2000,10.5,2.0
# From MPC101095
P/2013 YG46 (Spacewatch),e,7.8563,48.8837,242.4588,3.276685,0.1661697,0.45488730,197.3478,05/02.0/2020,2000,g 10.0,4.0
# From MPC 89728
P/2014 A2 (Hill),e,24.5494,106.6270,356.2859,5.925313,0.0683340,0.64584879,163.1456,05/02.0/2020,2000,g 15.0,4.0
# From MPC 92981
P/2014 A3 (PANSTARRS),e,13.6813,230.3074,212.4779,4.636468,0.0987241,0.24574703,253.3926,05/02.0/2020,2000,g 12.0,4.0
# From MPC108592
C/2014 A4 (SONEAR),e,121.3765,29.6801,356.5884,2914,0.0000063,0.99856744,0.0000,09/04.1084/2015,2000,g  6.0,4.0
# From MPC 96865
C/2014 AA52 (Catalina),h,02/26.8010/2015,105.1220,330.3227,292.1500,1.000057,2.001497,2000,10.0,4.0
# From MPEC 2020-H67
